NORAD_CAT_ID,OBJECT_NAME,OBJECT_TYPE,EPOCH,MEAN_MOTION,ECCENTRICITY,INCLINATION,RA_OF_ASC_NODE,ARG_OF_PERICENTER,MEAN_ANOMALY,BSTAR,MEAN_MOTION_DOT,MEAN_MOTION_DDOT,TLE_LINE0,TLE_LINE1,TLE_LINE2,SEMIMAJOR_AXIS,PERIOD,APOGEE,PERIGEE,DECAYED
53703.0,STARLINK-4731,PAYLOAD,2022-11-28 22:00:01,15.27021737,0.0001354,53.2169,216.8633,86.6849,87.6086,-0.047712,-0.01180989,0.0,0 STARLINK-4731,1 53703U 22107D   22332.91668981 -.01180989  00000-0 -47712-1 0  9990,2 53703  53.2169 216.8633 0001354  86.6849  87.6086 15.27021737  1303,6862.858,94.301,485.652,483.794,0.0
53703.0,STARLINK-4731,PAYLOAD,2022-11-29 14:00:01,15.25382248,0.0001311,53.2168,213.7886,71.1608,167.9986,-0.049442,-0.01165591,0.0,0 STARLINK-4731,1 53703U 22107D   22333.58335648 -.01165591  00000-0 -49442-1 0  9999,2 53703  53.2168 213.7886 0001311  71.1608 167.9986 15.25382248 13526,6867.775,94.403,490.54,488.739,0.0
53703.0,STARLINK-4731,PAYLOAD,2022-11-29 22:00:00,15.24579491,0.0001308,53.217,212.2559,89.5219,180.53,-0.051308,-0.0117947,0.0,0 STARLINK-4731,1 53703U 22107D   22333.91667824 -.01179470  00000-0 -51308-1 0  9995,2 53703  53.2170 212.2559 0001308  89.5219 180.5300 15.24579491  1308,6870.185,94.452,492.949,491.152,0.0
53703.0,STARLINK-4731,PAYLOAD,2022-11-30 14:00:01,15.22928168,0.0001192,53.2172,209.1921,94.3044,234.8153,-0.052294,-0.01146781,0.0,0 STARLINK-4731,1 53703U 22107D   22334.58335648 -.01146781  00000-0 -52294-1 0  9999,2 53703  53.2172 209.1921 0001192  94.3044 234.8153 15.22928168 13689,6875.151,94.555,497.835,496.196,0.0
53703.0,STARLINK-4731,PAYLOAD,2022-11-30 22:00:00,15.22116852,0.0001189,53.2172,207.6657,86.2725,270.8107,-0.053741,-0.01150148,0.0,0 STARLINK-4731,1 53703U 22107D   22334.91667824 -.01150148  00000-0 -53741-1 0  9990,2 53703  53.2172 207.6657 0001189  86.2725 270.8107 15.22116852  1304,6877.594,94.605,500.276,498.641,0.0
53703.0,STARLINK-4731,PAYLOAD,2022-12-01 14:00:01,15.20487291,0.0001244,53.2172,204.6131,69.9517,340.2580000000001,-0.056216,-0.01146892,0.0,0 STARLINK-4731,1 53703U 22107D   22335.58334491 -.01146892  00000-0 -56216-1 0  9996,2 53703  53.2172 204.6131 0001244  69.9517 340.2580 15.20487291  1300,6882.507,94.706,505.228,503.516,0.0
53703.0,STARLINK-4731,PAYLOAD,2022-12-01 22:00:00,15.19700605,0.0001344,53.2172,203.0924,72.866,2.4248,-0.059569,-0.01184405,0.0,0 STARLINK-4731,1 53703U 22107D   22335.91667824 -.01184405  00000-0 -59569-1 0  9998,2 53703  53.2172 203.0924 0001344  72.8660   2.4248 15.19700605 13885,6884.882,94.756,507.672,505.821,0.0
53703.0,STARLINK-4731,PAYLOAD,2022-12-02 14:00:01,15.18049821,0.0001654,53.2172,200.0515,50.9704,71.59,-0.060645,-0.01151979,0.0,0 STARLINK-4731,1 53703U 22107D   22336.58334491 -.01151979  00000-0 -60645-1 0  9990,2 53703  53.2172 200.0515 0001654  50.9704  71.5900 15.18049821  1309,6889.871999999999,94.859,512.877,510.597,0.0
53703.0,STARLINK-4731,PAYLOAD,2022-12-02 22:00:00,15.17270712,0.0001505,53.2172,198.5364,73.1688,71.5348,-0.064742,-0.01198342,0.0,0 STARLINK-4731,1 53703U 22107D   22336.91667824 -.01198342  00000-0 -64742-1 0  9993,2 53703  53.2172 198.5364 0001505  73.1688  71.5348 15.17270712  1305,6892.23,94.907,515.133,513.058,0.0
53703.0,STARLINK-4731,PAYLOAD,2022-12-03 08:00:01,15.16224106,0.0001395999999999,53.2174,196.642,66.7029,194.3448,-0.06443,-0.0116037,0.0,0 STARLINK-4731,1 53703U 22107D   22337.33334491 -.01160370  00000-0 -64430-1 0  9995,2 53703  53.2174 196.6420 0001396  66.7029 194.3448 15.16224106 14106,6895.401999999999,94.973,518.229,516.304,0.0
53703.0,STARLINK-4731,PAYLOAD,2022-12-03 14:00:01,15.15604653,0.0001525,53.2172,195.5068,61.0155,125.099,-0.06471,-0.01146137,0.0,0 STARLINK-4731,1 53703U 22107D   22337.58334491 -.01146137  00000-0 -64710-1 0  9998,2 53703  53.2172 195.5068 0001525  61.0155 125.0990 15.15604653  1301,6897.28,95.012,520.197,518.094,0.0
53703.0,STARLINK-4731,PAYLOAD,2022-12-03 22:00:00,15.14787607,0.0001483,53.2173,193.9973,76.7634,128.5803,-0.06596,-0.01141732,0.0,0 STARLINK-4731,1 53703U 22107D   22337.91667824 -.01141732  00000-0 -65960-1 0  9998,2 53703  53.2173 193.9973 0001483  76.7634 128.5803 15.14787607  1308,6899.76,95.063,522.649,520.602,0.0
53703.0,STARLINK-4731,PAYLOAD,2022-12-04 14:00:01,15.13189575,0.0001539,53.2171,190.9791,60.6078,180.2445,-0.0715679999999999,-0.01180629,0.0,0 STARLINK-4731,1 53703U 22107D   22338.58334491 -.01180629  00000-0 -71568-1 0  9992,2 53703  53.2171 190.9791 0001539  60.6078 180.2445 15.13189575  1303,6904.6169999999975,95.163,527.545,525.42,0.0
53703.0,STARLINK-4731,PAYLOAD,2022-12-04 22:00:00,15.12357387,0.0001434,53.2174,189.4753,74.4829,182.6728,-0.071616,-0.01156127,0.0,0 STARLINK-4731,1 53703U 22107D   22338.91667824 -.01156127  00000-0 -71616-1 0  9998,2 53703  53.2174 189.4753 0001434  74.4829 182.6728 15.12357387  1305,6907.15,95.216,530.005,528.025,0.0
53703.0,STARLINK-4731,PAYLOAD,2022-12-05 14:00:01,15.10744836,0.0001476,53.2172,186.4683,63.0719,223.7959,-0.076269,-0.01175324,0.0,0 STARLINK-4731,1 53703U 22107D   22339.58335648 -.01175324  00000-0 -76269-1 0  9997,2 53703  53.2172 186.4683 0001476  63.0719 223.7959 15.10744836 14449,6912.064,95.317,534.9490000000002,532.909,0.0
53703.0,STARLINK-4731,PAYLOAD,2022-12-05 22:00:01,15.09832443,0.0001578,53.2175,184.9703,59.8107,240.4444,-0.063061,-0.00951408,0.0,0 STARLINK-4731,1 53703U 22107D   22339.91668981 -.00951408  00000-0 -63061-1 0  9993,2 53703  53.2175 184.9703 0001578  59.8107 240.4444 15.09832443  1301,6914.849,95.375,537.805,535.622,0.0
53703.0,STARLINK-4731,PAYLOAD,2022-12-06 08:00:01,15.08899976,0.0001405,53.2175,183.0968,69.3271,336.2254,-0.0065277,-0.00102864,0.0,0 STARLINK-4731,1 53703U 22107D   22340.33334491 -.00102864  00000-0 -65277-2 0  9993,2 53703  53.2175 183.0968 0001405  69.3271 336.2254 15.08899976 14558,6917.696999999999,95.434,540.534,538.59,0.0
53703.0,STARLINK-4731,PAYLOAD,2022-12-06 14:00:01,15.08884837,0.0001545,53.2165,181.9749,69.0661,255.2741,-0.0028786,-0.00045866,0.0,0 STARLINK-4731,1 53703U 22107D   22340.58335648 -.00045866  00000-0 -28786-2 0  9997,2 53703  53.2165 181.9749 0001545  69.0661 255.2741 15.08884837  1306,6917.743,95.435,540.677,538.54,0.0
53703.0,STARLINK-4731,PAYLOAD,2022-12-06 16:00:00,15.08874436,0.0001557,53.2165,181.6014,67.0381,350.1513,-0.0025859,-0.00041246,0.0,0 STARLINK-4731,1 53703U 22107D   22340.66667824 -.00041246  00000-0 -25859-2 0  9996,2 53703  53.2165 181.6014 0001557  67.0381 350.1513 15.08874436 14601,6917.775,95.435,540.717,538.563,0.0
53703.0,STARLINK-4731,PAYLOAD,2022-12-06 22:00:00,15.08832944,0.0001621,53.2163,180.4803,60.2892,275.6124,0.00041151,6.266e-05,0.0,0 STARLINK-4731,1 53703U 22107D   22340.91667824  .00006266  00000-0  41151-3 0  9999,2 53703  53.2163 180.4803 0001621  60.2892 275.6124 15.08832944  1306,6917.901999999999,95.438,540.888,538.646,0.0
53703.0,STARLINK-4731,PAYLOAD,2022-12-08 00:00:00,15.08789163,0.0001474,53.2163,175.6175,57.8907,45.6357,0.0051591,0.00082668,0.0,0 STARLINK-4731,1 53703U 22107D   22342.00001157  .00082668  00000-0  51591-2 0  9990,2 53703  53.2163 175.6175 0001474  57.8907  45.6357 15.08789163 14805,6918.036,95.441,540.9209999999998,538.881,0.0
53703.0,STARLINK-4731,PAYLOAD,2022-12-08 14:00:01,15.08835937,0.0001414,53.2155,172.9971,69.1204,324.6498,-6.9432e-05,-1.393e-05,0.0,0 STARLINK-4731,1 53703U 22107D   22342.58334491 -.00001393  00000-0 -69432-4 0  9996,2 53703  53.2155 172.9971 0001414  69.1204 324.6498 15.08835937  1308,6917.893,95.438,540.736,538.78,0.0
53703.0,STARLINK-4731,PAYLOAD,2022-12-08 22:00:01,15.0881613,0.0001538,53.2153,171.5023,60.6349,344.7921,0.0017219,0.00027204,0.0,0 STARLINK-4731,1 53703U 22107D   22342.91668981  .00027204  00000-0  17219-2 0  9998,2 53703  53.2153 171.5023 0001538  60.6349 344.7921 15.08816130  1300,6917.953,95.439,540.882,538.754,0.0
53703.0,STARLINK-4731,PAYLOAD,2022-12-09 00:00:00,15.08810848,0.000152,53.215,171.1282,58.5351,79.7242,0.002669,0.00042411,0.0,0 STARLINK-4731,1 53703U 22107D   22343.00001157  .00042411  00000-0  26690-2 0  9995,2 53703  53.2150 171.1282 0001520  58.5351  79.7242 15.08810848 14956,6917.969,95.439,540.886,538.783,0.0
53703.0,STARLINK-4731,PAYLOAD,2022-12-09 14:00:01,15.08845732,0.000147,53.2151,168.50799999999995,69.2189,359.3045,-0.00060656,-9.93e-05,0.0,0 STARLINK-4731,1 53703U 22107D   22343.58334491 -.00009930  00000-0 -60656-3 0  9990,2 53703  53.2151 168.5080 0001470  69.2189 359.3045 15.08845732  1308,6917.863,95.437,540.745,538.711,0.0
53703.0,STARLINK-4731,PAYLOAD,2022-12-10 08:00:01,15.08822372,0.0001443,53.2155,165.1405,66.0484,118.6319,0.001905,0.00030146,0.0,0 STARLINK-4731,1 53703U 22107D   22344.33335648  .00030146  00000-0  19050-2 0  9991,2 53703  53.2155 165.1405 0001443  66.0484 118.6319 15.08822372 15152,6917.934,95.439,540.798,538.8009999999998,0.0
53703.0,STARLINK-4731,PAYLOAD,2022-12-10 14:00:01,15.08857165,0.0001528,53.2155,164.0186,67.9687,35.3375,-0.00082323,-0.00013372,0.0,0 STARLINK-4731,1 53703U 22107D   22344.58334491 -.00013372  00000-0 -82323-3 0  9991,2 53703  53.2155 164.0186 0001528  67.9687  35.3375 15.08857165  1302,6917.828,95.436,540.75,538.636,0.0
53703.0,STARLINK-4731,PAYLOAD,2022-12-11 00:00:00,15.08835609,0.0001559,53.2172,162.1487,55.9359,151.9367,0.00017076,2.43e-05,0.0,0 STARLINK-4731,1 53703U 22107D   22345.00001157  .00002430  00000-0  17076-3 0  9993,2 53703  53.2172 162.1487 0001559  55.9359 151.9367 15.08835609  1306,6917.894,95.438,540.837,538.68,0.0
53703.0,STARLINK-4731,PAYLOAD,2022-12-11 08:00:01,15.08830796,0.00015,53.216,160.6511,65.321,154.1698,0.0023693,0.00037611,0.0,0 STARLINK-4731,1 53703U 22107D   22345.33335648  .00037611  00000-0  23693-2 0  9994,2 53703  53.2160 160.6511 0001500  65.3210 154.1698 15.08830796 15300,6917.909000000002,95.438,540.811,538.736,0.0
